STARLINK-1894           
1 46744C 20074F   26080.26229167  .00422080  00000+0  16704-2 0   805
2 46744  53.0408 219.3942 0006799 334.3564 109.0570 15.85792805    19
STARLINK-1905           
1 46746C 20074H   26080.25604167  .00185920  00000+0  17873-2 0   800
2 46746  53.0448 226.9211 0003119 346.7439 251.0296 15.65822954    19
STARLINK-1911           
1 46749C 20074L   26080.32618056  .00239380  00000+0  15705-2 0   805
2 46749  53.0464 220.6264 0003268   2.3765  12.6897 15.74932176    17
STARLINK-1922           
1 46753C 20074Q   26080.19770833  .00176670  00000+0  16575-2 0   805
2 46753  53.0451 227.2284 0003712   9.8132  46.0037 15.66429386    19
STARLINK-1928           
1 46758C 20074V   26080.28173611  .00196620  00000+0  16653-2 0   805
2 46758  53.0426 227.4873 0003351  37.6123 177.3464 15.68928516    13
STARLINK-1832           
1 46780C 20074AT  26080.26020833  .00346800  00000+0  17699-2 0   803
2 46780  53.0401 209.6249 0001276 324.4239 263.4725 15.80494204    12
STARLINK-1835           
1 46782C 20074AV  26080.31784722  .00125930  00000+0  14617-2 0   801
2 46782  53.0444 218.1907 0006807  25.4011 168.2076 15.61039670    10
STARLINK-1882           
1 46784C 20074AX  26080.32965278  .00168260  00000+0  16734-2 0   806
2 46784  53.0514 217.8403 0002823 199.6966 177.7767 15.64983907    10
STARLINK-1893           
1 46786C 20074AZ  26080.25534722  .00117220  00000+0  19709-2 0   801
2 46786  53.0491 208.6948 0003814  27.1231 203.2678 15.51074334    16
STARLINK-1931           
1 46790C 20074BD  26080.27201389  .00192310  00000+0  17507-2 0   805
2 46790  53.0427 226.2581 0003352  13.9356 151.1859 15.67167919    18
STARLINK-1934           
1 46792C 20074BF  26080.22756944  .00378260  00000+0  16948-2 0   802
2 46792  53.0409 208.6390 0003485 345.7286 349.7505 15.83257870    14
STARLINK-1942           
1 46794C 20074BH  26080.28659722  .00096676  00000+0  17282-2 0   806
2 46794  53.0449 238.6907 0002430  27.5334   4.4466 15.49360729    16
STARLINK-1944           
1 46796C 20074BK  26080.31715278  .00171830  00000+0  15699-2 0   807
2 46796  53.0447 213.7177 0003776 345.2413 246.8669 15.67087281    17
STARLINK-1777           
1 47122C 20088A   26080.26715278  .00118170  00000+0  17891-2 0   804
2 47122  53.0510 227.8995 0004207 316.1814 202.7627 15.53978634    19
STARLINK-1812           
1 47126C 20088E   26080.25881944  .00042267  00000+0  21804-2 0   803
2 47126  53.0771 247.0102 0001480 174.7834 240.0651 15.15812436    13
STARLINK-1843           
1 47133C 20088M   26080.22270833  .00648120  00000+0  16504-2 0   808
2 47133  53.0409 184.4188 0009458 357.9186 232.9649 15.94268446    15
STARLINK-1845           
1 47135C 20088P   26080.33034722  .00118560  00000+0  16050-2 0   803
2 47135  53.0511 221.0443 0003835 316.3421 230.9691 15.57011649    12
STARLINK-1856           
1 47143C 20088X   26080.31368056  .00102920  00000+0  17247-2 0   802
2 47143  53.0500 217.4321 0004168 206.7284 335.7178 15.51172056    10
STARLINK-1871           
1 47157C 20088AM  26080.21437500  .00022787  00000+0  76788-3 0   805
2 47157  53.1573 242.8359 0001081  99.3761 279.3992 15.30185166    16
STARLINK-1873           
1 47158C 20088AN  26080.23868056  .00141280  00000+0  17642-2 0   805
2 47158  53.0474 212.7597 0005368 195.1273 330.6405 15.59133627    17
STARLINK-1876           
1 47161C 20088AR  26080.25743056  .00184510  00000+0  17708-2 0   809
2 47161  53.0506 214.9850 0002636  14.8908 327.7056 15.65867764    12
STARLINK-1888           
1 47171C 20088BB  26080.28451389  .00109080  00000+0  18802-2 0   803
2 47171  53.0515 223.9009 0002451 232.2165 316.8057 15.50385053    15
STARLINK-1912           
1 47178C 20088BJ  26080.29493056  .00127850  00000+0  16463-2 0   804
2 47178  53.0504 225.1595 0005657 220.5025 299.2708 15.58328167    18
STARLINK-1913           
1 47179C 20088BK  26080.28729167  .00050402  00000+0  16988-2 0   809
2 47179  53.1572 253.1856 0001024  87.4588 199.4979 15.30166178    17
STARLINK-2017           
1 47351C 21005C   26080.23451389  .00003815  00000+0  12856-3 0   801
2 47351  53.1593 320.0438 0001268  81.5570 116.4987 15.30194850    14
STARLINK-2034           
1 47352C 21005D   26080.20465278  .00029996  00000+0  10109-2 0   807
2 47352  53.1595 359.2615 0001139  81.6920   0.0398 15.30178518    12
STARLINK-2045           
1 47353C 21005E   26080.26854167 -.00014510  00000+0 -48911-3 0   804
2 47353  53.1578 306.8783 0001207  86.5026  64.3251 15.30193807    14
STARLINK-2046           
1 47354C 21005F   26080.23451389  .00015753  00000+0  53069-3 0   809
2 47354  53.1581 330.3411 0001249  89.8557 160.5827 15.30198890    15
STARLINK-2047           
1 47355C 21005G   26080.32340278 -.00020175  00000+0 -67954-3 0   808
2 47355  53.1588 316.9743 0001527  92.9264 104.8834 15.30221639    17
STARLINK-2049           
1 47356C 21005H   26080.24562500  .00027116  00000+0  18163-2 0   801
2 47356  53.0528 339.7438 0001446  88.2876 264.3101 15.06396817    15
STARLINK-2050           
1 47357C 21005J   26080.21854167  .00826000  00000+0  28322-1 0   808
2 47357  53.1563   8.8903 0001535  95.2475 256.4124 15.29223297    12
STARLINK-2055           
1 47358C 21005K   26080.30604167 -.00005578  00000+0 -37365-3 0   802
2 47358  53.0534 339.4620 0001809  91.1435 174.4031 15.06406932    14
STARLINK-2071           
1 47361C 21005N   26080.26506944  .00013172  00000+0  88250-3 0   801
2 47361  53.0534 339.6557 0001606  88.5200 269.6402 15.06394666    13
STARLINK-2076           
1 47362C 21005P   26080.25187500  .00696070  00000+0  25134-1 0   808
2 47362  53.1488   8.5841 0001646  79.9414 225.5390 15.27601050    14
STARLINK-2081           
1 47366C 21005T   26080.34979167  .00615790  00000+0  24122-1 0   806
2 47366  53.1365   8.3670 0001716  81.2877 113.0252 15.24950377    11
STARLINK-2082           
1 47367C 21005U   26080.21298611  .00675450  00000+0  26904-1 0   800
2 47367  53.1347   9.0561 0001810  80.7094 270.0000 15.24363313    12
STARLINK-2084           
1 47368C 21005V   26080.21645833  .00661600  00000+0  25458-1 0   808
2 47368  53.1399   8.9112 0001438  79.4386  41.2353 15.25520971    10
STARLINK-2088           
1 47371C 21005Y   26080.30534722  .00621720  00000+0  41183-1 0   808
2 47371  53.0543   9.4755 0001610  93.7092 257.9943 15.06510980    17
STARLINK-2092           
1 47373C 21005AA  26080.33034722  .00651450  00000+0  24753-1 0   805
2 47373  53.1412   8.3797 0001721  81.1919 248.6101 15.25943960    13
STARLINK-2093           
1 47374C 21005AB  26080.27062500  .00158550  00000+0  14352-2 0   802
2 47374  53.0517 348.4009 0003744 162.4617 235.6422 15.67321683    18
STARLINK-2094           
1 47375C 21005AC  26080.32062500  .00035935  00000+0  12424-2 0   808
2 47375  53.1557   8.3365 0001315  84.4320 100.0511 15.29346764    16
STARLINK-2096           
1 47376C 21005AD  26080.30187500  .00685060  00000+0  26225-1 0   808
2 47376  53.1397   8.4919 0001227 105.9408 278.6338 15.25681829    12
STARLINK-2097           
1 47377C 21005AE  26080.21159722  .00019002  00000+0  12729-2 0   806
2 47377  53.0534   9.8969 0001653  86.3802  56.6351 15.06395857    19
STARLINK-2098           
1 47378C 21005AF  26080.33798611 -.00019862  00000+0 -66921-3 0   806
2 47378  53.1577 320.0611 0001392  90.9661 119.5322 15.30211721    15
STARLINK-2099           
1 47379C 21005AG  26080.23937500 -.00003364  00000+0 -11337-3 0   809
2 47379  53.1588 319.8962 0001248  84.4009 250.8882 15.30194910    17
STARLINK-2100           
1 47380C 21005AH  26080.28243056  .00250140  00000+0  11206-1 0   809
2 47380  53.0551 338.5611 0001380  81.2251  95.7853 15.20603164    17
STARLINK-2101           
1 47381C 21005AJ  26080.17340278  .00036173  00000+0  12513-2 0   803
2 47381  53.1558 343.6661 0001335  96.8128  57.7532 15.29331768    12
STARLINK-2102           
1 47382C 21005AK  26080.23520833  .00021067  00000+0  70992-3 0   800
2 47382  53.1603 332.9276 0001086  84.9623 253.1298 15.30186223    15
STARLINK-2103           
1 47383C 21005AL  26080.30881944 -.00013872  00000+0 -45534-3 0   803
2 47383  53.1581 320.2820 0001182  84.6448  20.7087 15.31050019    13
STARLINK-2104           
1 47384C 21005AM  26080.32479167 -.00012473  00000+0 -83497-3 0   802
2 47384  53.0533 339.6288 0001692  84.9052 277.1336 15.06438189    17
STARLINK-2105           
1 47385C 21005AN  26080.23312500  .00150270  00000+0  10057-1 0   806
2 47385  53.0532 339.8000 0001292  83.5465 161.2024 15.06364783    15
STARLINK-2106           
1 47386C 21005AP  26080.27687500 -.00010816  00000+0 -72468-3 0   805
2 47386  53.0528 339.6033 0001698  88.9433 233.2444 15.06402476    17
STARLINK-2109           
1 47388C 21005AR  26080.29423611  .00254610  00000+0  17036-1 0   808
2 47388  53.0537   9.5250 0001664  88.9258 322.5143 15.06320517    14
STARLINK-2110           
1 47389C 21005AS  26080.30604167 -.00002742  00000+0 -92387-4 0   802
2 47389  53.1604 342.8057 0001269  84.1527 214.9487 15.30198875    19
STARLINK-2111           
1 47390C 21005AT  26080.32479167  .00625910  00000+0  41622-1 0   805
2 47390  53.0539   9.3880 0001307  77.2287 279.9887 15.06365313    16
STARLINK-2112           
1 47391C 21005AU  26080.21715278  .00047319  00000+0  31703-2 0   801
2 47391  53.0535 339.8714 0001427  84.7768 358.5021 15.06375991    17
STARLINK-2113           
1 47392C 21005AV  26080.26437500  .00054898  00000+0  64342-3 0   802
2 47392  53.0508 320.0370 0005166 166.9073  62.4942 15.60836450    19
STARLINK-2114           
1 47393C 21005AW  26080.34076389  .00173690  00000+0  15264-2 0   806
2 47393  53.0434 286.5125 0001568 245.3720 256.3909 15.68048493    12
STARLINK-2119           
1 47397C 21005BA  26080.30465278  .00619940  00000+0  23546-1 0   809
2 47397  53.1411   8.4179 0001736  83.5109 229.8796 15.25974123    12
